NORAD_CAT_ID,OBJECT_NAME,OBJECT_TYPE,EPOCH,MEAN_MOTION,ECCENTRICITY,INCLINATION,RA_OF_ASC_NODE,ARG_OF_PERICENTER,MEAN_ANOMALY,BSTAR,MEAN_MOTION_DOT,MEAN_MOTION_DDOT,TLE_LINE0,TLE_LINE1,TLE_LINE2,SEMIMAJOR_AXIS,PERIOD,APOGEE,PERIGEE,DECAYED
55650.0,STARLINK-5494,PAYLOAD,2024-01-27 06:56:44,14.98324699,0.0002595,70.0016,331.9405,261.6096,98.4769,-1.3776e-05,-2.57e-06,0.0,0 STARLINK-5494,1 55650U 23021Y   24027.28940326 -.00000257  00000-0 -13776-4 0  9992,2 55650  70.0016 331.9405 0002595 261.6096  98.4769 14.98324699 53098,6950.209,96.107,573.878,570.271,0.0
55650.0,STARLINK-5494,PAYLOAD,2024-01-27 21:21:56,14.98332073,0.0002797,70.0011,330.4253,262.7666,97.3175,-1.5358e-05,-2.76e-06,0.0,0 STARLINK-5494,1 55650U 23021Y   24027.89023891 -.00000276  00000-0 -15358-4 0  9997,2 55650  70.0011 330.4253 0002797 262.7666  97.3175 14.98332073 53181,6950.186,96.107,573.995,570.108,0.0
55650.0,STARLINK-5494,PAYLOAD,2024-01-28 05:22:36,14.98333734,0.0002767,70.0011,329.5838,260.8473,99.2373,8.0936e-06,4e-08,0.0,0 STARLINK-5494,1 55650U 23021Y   24028.22403668  .00000004  00000-0  80936-5 0  9991,2 55650  70.0011 329.5838 0002767 260.8473  99.2373 14.98333734 53233,6950.181,96.107,573.969,570.123,0.0
55650.0,STARLINK-5494,PAYLOAD,2024-01-28 23:00:05,14.98325392,0.0002733,70.0012,327.7322,259.3098,100.7754,3.8658e-05,3.68e-06,0.0,0 STARLINK-5494,1 55650U 23021Y   24028.95840101  .00000368  00000-0  38658-4 0  9994,2 55650  70.0012 327.7322 0002733 259.3098 100.7754 14.98325392 53345,6950.207,96.107,573.972,570.173,0.0
55650.0,STARLINK-5494,PAYLOAD,2024-01-29 03:48:29,14.98326801,0.0002621,70.0014,327.2282,256.469,103.6177,9.5711e-05,1.049e-05,0.0,0 STARLINK-5494,1 55650U 23021Y   24029.15867889  .00001049  00000-0  95711-4 0  9999,2 55650  70.0014 327.2282 0002621 256.4690 103.6177 14.98326801 53076,6950.203,96.107,573.889,570.246,0.0
55650.0,STARLINK-5494,PAYLOAD,2024-01-29 05:24:37,14.98329549,0.0002663,70.0012,327.0592,258.5239,101.5622,8.5061e-05,9.22e-06,0.0,0 STARLINK-5494,1 55650U 23021Y   24029.22543745  .00000922  00000-0  85061-4 0  9995,2 55650  70.0012 327.0592 0002663 258.5239 101.5622 14.98329549 53382,6950.194,96.107,573.91,570.208,0.0
55650.0,STARLINK-5494,PAYLOAD,2024-01-30 03:50:30,14.98331854,0.0002531,70.0013,324.7035,255.223,104.8649,1.8379e-05,1.26e-06,0.0,0 STARLINK-5494,1 55650U 23021Y   24030.16007687  .00000126  00000-0  18379-4 0  9994,2 55650  70.0013 324.7035 0002531 255.2230 104.8649 14.98331854 53228,6950.187,96.107,573.811,570.293,0.0
55650.0,STARLINK-5494,PAYLOAD,2024-01-30 05:26:38,14.98331613,0.0002539,70.0013,324.5351,255.7699,104.3178,1.4331e-05,7.8e-07,0.0,0 STARLINK-5494,1 55650U 23021Y   24030.22683703  .00000078  00000-0  14331-4 0  9990,2 55650  70.0013 324.5351 0002539 255.7699 104.3178 14.98331613 53538,6950.188,96.107,573.818,570.288,0.0
55650.0,STARLINK-5494,PAYLOAD,2024-01-30 23:04:07,14.98331585,0.0002676,70.0008,322.6834,259.2303,100.8554,-1.3661e-05,-2.56e-06,0.0,0 STARLINK-5494,1 55650U 23021Y   24030.96119673 -.00000256  00000-0 -13661-4 0  9996,2 55650  70.0008 322.6834 0002676 259.2303 100.8554 14.98331585 53649,6950.188,96.107,573.913,570.193,0.0
55650.0,STARLINK-5494,PAYLOAD,2024-01-31 03:52:31,14.98339341,0.0002536,70.0009,322.1786,257.7694,102.3181,-0.00013406,-1.692e-05,0.0,0 STARLINK-5494,1 55650U 23021Y   24031.16147472 -.00001692  00000-0 -13406-3 0  9998,2 55650  70.0009 322.1786 0002536 257.7694 102.3181 14.98339341 53373,6950.164,96.106,573.792,570.266,0.0
55650.0,STARLINK-5494,PAYLOAD,2024-01-31 05:28:39,14.98332636,0.0002669,70.0007,322.0102,259.5157,100.5701,-6.3346e-07,-1.01e-06,0.0,0 STARLINK-5494,1 55650U 23021Y   24031.22823534 -.00000101  00000-0 -63346-6 0  9990,2 55650  70.0007 322.0102 0002669 259.5157 100.5701 14.98332636 53685,6950.185,96.107,573.905,570.195,0.0
55650.0,STARLINK-5494,PAYLOAD,2024-01-31 18:17:44,14.98330697,0.0002562,70.0009,320.6641,260.6463,99.4406,-1.1777e-05,-2.33e-06,0.0,0 STARLINK-5494,1 55650U 23021Y   24031.76231659 -.00000233  00000-0 -11777-4 0  9995,2 55650  70.0009 320.6641 0002562 260.6463  99.4406 14.98330697 53766,6950.191,96.107,573.836,570.275,0.0
55650.0,STARLINK-5494,PAYLOAD,2024-02-01 03:54:32,14.98328263,0.0002595,70.0007,319.6538,261.5883,98.4982,-3.5034e-05,-5.11e-06,0.0,0 STARLINK-5494,1 55650U 23021Y   24032.16287877 -.00000511  00000-0 -35034-4 0  9994,2 55650  70.0007 319.6538 0002595 261.5883  98.4982 14.98328263 53527,6950.198,96.107,573.867,570.26,0.0
55650.0,STARLINK-5494,PAYLOAD,2024-02-01 05:30:40,14.98328728,0.0002588,70.0007,319.4856,262.7909,97.2956,-2.9717e-05,-4.47e-06,0.0,0 STARLINK-5494,1 55650U 23021Y   24032.22963845 -.00000447  00000-0 -29717-4 0  9996,2 55650  70.0007 319.4856 0002588 262.7909  97.2956 14.98328728 53830,6950.197,96.107,573.861,570.263,0.0
55650.0,STARLINK-5494,PAYLOAD,2024-02-01 18:19:45,14.98327005,0.0002926,70.0002,318.1387,272.018,88.0644,-1.3659e-05,-2.56e-06,0.0,0 STARLINK-5494,1 55650U 23021Y   24032.76371907 -.00000256  00000-0 -13659-4 0  9993,2 55650  70.0002 318.1387 0002926 272.0180  88.0644 14.98327005 53919,6950.202,96.107,574.101,570.034,0.0
55650.0,STARLINK-5494,PAYLOAD,2024-02-02 03:56:33,14.98345664,0.0002659,70.0005,317.1295,267.9771,92.1084,-0.00022147,-2.735e-05,0.0,0 STARLINK-5494,1 55650U 23021Y   24033.16427297 -.00002735  00000-0 -22147-3 0  9997,2 55650  70.0005 317.1295 0002659 267.9771  92.1084 14.98345664 53679,6950.144,96.106,573.857,570.161,0.0
55650.0,STARLINK-5494,PAYLOAD,2024-02-02 19:57:54,14.98329971,0.000246,70.0005,315.4461,265.2943,94.7935,2.2108e-05,1.71e-06,0.0,0 STARLINK-5494,1 55650U 23021Y   24033.83187600  .00000171  00000-0  22108-4 0  9990,2 55650  70.0005 315.4461 0002460 265.2943  94.7935 14.98329971 53774,6950.193,96.107,573.768,570.348,0.0
55650.0,STARLINK-5494,PAYLOAD,2024-02-02 21:34:02,14.98330703,0.000257,70.0006,315.2777,265.5495,94.537,8.3709e-06,7e-08,0.0,0 STARLINK-5494,1 55650U 23021Y   24033.89863579  .00000007  00000-0  83709-5 0  9995,2 55650  70.0006 315.2777 0002570 265.5495  94.5370 14.98330703 54081,6950.191,96.107,573.842,570.27,0.0
55650.0,STARLINK-5494,PAYLOAD,2024-02-03 03:58:34,14.9832844,0.0002601,70.0005,314.6041,261.1416,98.9448,2.1716e-05,1.66e-06,0.0,0 STARLINK-5494,1 55650U 23021Y   24034.16567667  .00000166  00000-0  21716-4 0  9990,2 55650  70.0005 314.6041 0002601 261.1416  98.9448 14.98328440 54121,6950.198,96.107,573.87,570.255,0.0
55650.0,STARLINK-5494,PAYLOAD,2024-02-03 19:59:55,14.98329381,0.0002578,70.0004,312.9209,259.6194,100.4674,6.3836e-06,-1.7e-07,0.0,0 STARLINK-5494,1 55650U 23021Y   24034.83327657 -.00000017  00000-0  63836-5 0  9993,2 55650  70.0004 312.9209 0002578 259.6194 100.4674 14.98329381 53927,6950.195,96.107,573.852,570.268,0.0
55650.0,STARLINK-5494,PAYLOAD,2024-02-03 21:36:03,14.98329616,0.0002577,70.0005,312.7524,259.4754,100.6114,9.313e-06,1.8e-07,0.0,0 STARLINK-5494,1 55650U 23021Y   24034.90003627  .00000018  00000-0  93130-5 0  9999,2 55650  70.0005 312.7524 0002577 259.4754 100.6114 14.98329616 54232,6950.194,96.107,573.85,570.268,0.0
55650.0,STARLINK-5494,PAYLOAD,2024-02-04 04:00:35,14.98331471,0.0002532,70.0006,312.0793,257.601,102.4866,3.1287e-05,2.8e-06,0.0,0 STARLINK-5494,1 55650U 23021Y   24035.16707430  .00000280  00000-0  31287-4 0  9996,2 55650  70.0006 312.0793 0002532 257.6010 102.4866 14.98331471 54270,6950.188,96.107,573.813,570.294,0.0
55650.0,STARLINK-5494,PAYLOAD,2024-02-04 20:01:56,14.98326665,0.0002584,70.0003,310.3948,264.8812,95.2052,-2.2382e-05,-3.6e-06,0.0,0 STARLINK-5494,1 55650U 23021Y   24035.83467875 -.00000360  00000-0 -22382-4 0  9993,2 55650  70.0003 310.3948 0002584 264.8812  95.2052 14.98326665 54070,6950.203,96.107,573.864,570.272,0.0
55650.0,STARLINK-5494,PAYLOAD,2024-02-04 21:38:04,14.98326675,0.0002587,70.0003,310.2262,264.6666,95.4198,-2.1708e-05,-3.52e-06,0.0,0 STARLINK-5494,1 55650U 23021Y   24035.90143876 -.00000352  00000-0 -21708-4 0  9995,2 55650  70.0003 310.2262 0002587 264.6666  95.4198 14.98326675 54384,6950.203,96.107,573.866,570.27,0.0
55650.0,STARLINK-5494,PAYLOAD,2024-02-05 12:03:16,14.98329616,0.0002618,70.0003,308.7103,269.7997,90.2862,8.7011e-06,1.1e-07,0.0,0 STARLINK-5494,1 55650U 23021Y   24036.50227709  .00000011  00000-0  87011-5 0  9990,2 55650  70.0003 308.7103 0002618 269.7997  90.2862 14.98329616 54477,6950.194,96.107,573.879,570.24,0.0
55650.0,STARLINK-5494,PAYLOAD,2024-02-05 20:03:56,14.98334982,0.0002784,69.9999,307.8686,271.2233,88.8607,1.6621e-05,1.05e-06,0.0,0 STARLINK-5494,1 55650U 23021Y   24036.83607273  .00000105  00000-0  16621-4 0  9996,2 55650  69.9999 307.8686 0002784 271.2233  88.8607 14.98334982 54224,6950.177,96.107,573.977,570.108,0.0
55650.0,STARLINK-5494,PAYLOAD,2024-02-05 21:40:04,14.98335243,0.0002779,70.0,307.7003,271.2695,88.8146,2.049e-05,1.52e-06,0.0,0 STARLINK-5494,1 55650U 23021Y   24036.90283225  .00000152  00000-0  20490-4 0  9992,2 55650  70.0000 307.7003 0002779 271.2695  88.8146 14.98335243 54531,6950.177,96.107,573.973,570.11,0.0
55650.0,STARLINK-5494,PAYLOAD,2024-02-06 04:04:36,14.98338846,0.0002753,69.9999,307.027,271.4233,88.6611,6.2924e-05,6.58e-06,0.0,0 STARLINK-5494,1 55650U 23021Y   24037.16986782  .00000658  00000-0  62924-4 0  9998,2 55650  69.9999 307.0270 0002753 271.4233  88.6611 14.98338846 54577,6950.166,96.106,573.944,570.117,0.0
55650.0,STARLINK-5494,PAYLOAD,2024-02-06 20:05:57,14.98327252,0.0002719,70.0,305.3439,272.1867,87.898,5.771e-05,5.96e-06,0.0,0 STARLINK-5494,1 55650U 23021Y   24037.83747360  .00000596  00000-0  57710-4 0  9997,2 55650  70.0000 305.3439 0002719 272.1867  87.8980 14.98327252 54371,6950.201,96.107,573.956,570.177,0.0
55650.0,STARLINK-5494,PAYLOAD,2024-02-06 21:42:05,14.98328785,0.0002732,69.9999,305.1757,272.4325,87.6521,3.0868e-05,2.75e-06,0.0,0 STARLINK-5494,1 55650U 23021Y   24037.90423357  .00000275  00000-0  30868-4 0  9991,2 55650  69.9999 305.1757 0002732 272.4325  87.6521 14.98328785 54688,6950.197,96.107,573.96,570.163,0.0
